start=new Date('2021-09-08T00:00:00.000Z').valueOf();
sats=[{"ELEMENT_SET_NO":"999","EPHEMERIS_TYPE":"0","FILE":"3110443","OBJECT_ID":"2021-040BK","DECAY_DATE":null,"EPOCH":"2021-09-07T18:00:58.607712","SITE":"AFETR","OBJECT_TYPE":"PAYLOAD","RCS_SIZE":"LARGE","REV_AT_EPOCH":"1856","COUNTRY_CODE":"US","MEAN_ELEMENT_THEORY":"SGP4","MEAN_MOTION_DDOT":"0.0000000000000","PERIOD":"95.592","TLE_LINE1":"1 48485U 21040BK  21250.75067833  .00000751  00000-0  69296-4 0  9994","OBJECT_NAME":"STARLINK-2500","RA_OF_ASC_NODE":"21.5389","MEAN_MOTION":"15.06406865","TLE_LINE2":"2 48485  53.0563  21.5389 0001942 132.0366 228.0789 15.06406865 18565","ARG_OF_PERICENTER":"132.0366","MEAN_ANOMALY":"228.0789","INCLINATION":"53.0563","REF_FRAME":"TEME","LAUNCH_DATE":"2021-05-09","TIME_SYSTEM":"UTC","GP_ID":"184284915","CLASSIFICATION_TYPE":"U","MEAN_MOTION_DOT":"0.00000751","APOAPSIS":"548.537","CENTER_NAME":"EARTH","PERIAPSIS":"545.848","NORAD_CAT_ID":"48485","ECCENTRICITY":"0.00019420","BSTAR":"0.00006929600000","SEMIMAJOR_AXIS":"6925.328"},{"DECAY_DATE":null,"OBJECT_ID":"2021-040BL","EPOCH":"2021-09-07T18:06:17.648352","SITE":"AFETR","OBJECT_TYPE":"PAYLOAD","RCS_SIZE":"LARGE","REV_AT_EPOCH":"1856","COUNTRY_CODE":"US","MEAN_ELEMENT_THEORY":"SGP4","MEAN_MOTION_DDOT":"0.0000000000000","PERIOD":"95.592","ELEMENT_SET_NO":"999","EPHEMERIS_TYPE":"0","FILE":"3110443","RA_OF_ASC_NODE":"21.5266","MEAN_MOTION":"15.06398225","TLE_LINE2":"2 48486  53.0545  21.5266 0001442 133.4720 226.6390 15.06398225 18566","TLE_LINE1":"1 48486U 21040BL  21250.75437093 -.00000253  00000-0  18843-5 0  9995","OBJECT_NAME":"STARLINK-2496","REF_FRAME":"TEME","LAUNCH_DATE":"2021-05-09","TIME_SYSTEM":"UTC","ARG_OF_PERICENTER":"133.4720","MEAN_ANOMALY":"226.6390","INCLINATION":"53.0545","NORAD_CAT_ID":"48486","ECCENTRICITY":"0.00014420","BSTAR":"0.00000188430000","SEMIMAJOR_AXIS":"6925.354","GP_ID":"184284822","MEAN_MOTION_DOT":"-0.00000253","CLASSIFICATION_TYPE":"U","APOAPSIS":"548.218","CENTER_NAME":"EARTH","PERIAPSIS":"546.220"},{"TLE_LINE2":"2 48487  53.0581  21.8043 0002623 117.2756 242.8501 15.06379123 18564","MEAN_MOTION":"15.06379123","RA_OF_ASC_NODE":"21.8043","OBJECT_NAME":"STARLINK-2494","TLE_LINE1":"1 48487U 21040BM  21250.69171262  .00004359  00000-0  31157-3 0  9993","REV_AT_EPOCH":"1856","COUNTRY_CODE":"US","MEAN_ELEMENT_THEORY":"SGP4","MEAN_MOTION_DDOT":"0.0000000000000","PERIOD":"95.593","OBJECT_ID":"2021-040BM","DECAY_DATE":null,"EPOCH":"2021-09-07T16:36:03.970368","SITE":"AFETR","OBJECT_TYPE":"PAYLOAD","RCS_SIZE":"LARGE","EPHEMERIS_TYPE":"0","FILE":"3110443","ELEMENT_SET_NO":"999","BSTAR":"0.00031157000000","SEMIMAJOR_AXIS":"6925.413","NORAD_CAT_ID":"48487","ECCENTRICITY":"0.00026230","CENTER_NAME":"EARTH","APOAPSIS":"549.094","PERIAPSIS":"545.461","GP_ID":"184284955","MEAN_MOTION_DOT":"0.00004359","CLASSIFICATION_TYPE":"U","LAUNCH_DATE":"2021-05-09","TIME_SYSTEM":"UTC","REF_FRAME":"TEME","ARG_OF_PERICENTER":"117.2756","MEAN_ANOMALY":"242.8501","INCLINATION":"53.0581"},{"MEAN_MOTION":"15.06405488","TLE_LINE2":"2 48553  53.0647 310.9850 0000614 146.8726 213.2302 15.06405488 17443","RA_OF_ASC_NODE":"310.9850","OBJECT_NAME":"STARLINK-2063","TLE_LINE1":"1 48553U 21041A   21250.86771942 -.00000862  00000-0 -38968-4 0  9993","PERIOD":"95.592","MEAN_MOTION_DDOT":"0.0000000000000","MEAN_ELEMENT_THEORY":"SGP4","COUNTRY_CODE":"US","REV_AT_EPOCH":"1744","RCS_SIZE":"LARGE","SITE":"AFETR","OBJECT_TYPE":"PAYLOAD","EPOCH":"2021-09-07T20:49:30.957888","OBJECT_ID":"2021-041A","DECAY_DATE":null,"FILE":"3110443","EPHEMERIS_TYPE":"0","ELEMENT_SET_NO":"999","SEMIMAJOR_AXIS":"6925.332","BSTAR":"-0.00003896800000","ECCENTRICITY":"0.00006140","NORAD_CAT_ID":"48553","PERIAPSIS":"546.772","CENTER_NAME":"EARTH","APOAPSIS":"547.622","MEAN_MOTION_DOT":"-0.00000862","CLASSIFICATION_TYPE":"U","GP_ID":"184284923","TIME_SYSTEM":"UTC","LAUNCH_DATE":"2021-05-15","REF_FRAME":"TEME","INCLINATION":"53.0647","MEAN_ANOMALY":"213.2302","ARG_OF_PERICENTER":"146.8726"},{"OBJECT_NAME":"STARLINK-2139","TLE_LINE1":"1 48554U 21041B   21250.87507511  .00001009  00000-0  86584-4 0  9993","MEAN_MOTION":"15.06408359","TLE_LINE2":"2 48554  53.0582 310.9758 0000498 183.2360 176.8626 15.06408359 17441","RA_OF_ASC_NODE":"310.9758","FILE":"3110443","EPHEMERIS_TYPE":"0","ELEMENT_SET_NO":"999","MEAN_ELEMENT_THEORY":"SGP4","COUNTRY_CODE":"US","REV_AT_EPOCH":"1744","PERIOD":"95.592","MEAN_MOTION_DDOT":"0.0000000000000","SITE":"AFETR","EPOCH":"2021-09-07T21:00:06.489504","OBJECT_TYPE":"PAYLOAD","DECAY_DATE":null,"OBJECT_ID":"2021-041B","RCS_SIZE":"LARGE","CENTER_NAME":"EARTH","APOAPSIS":"547.533","PERIAPSIS":"546.843","GP_ID":"184284830","CLASSIFICATION_TYPE":"U","MEAN_MOTION_DOT":"0.00001009","BSTAR":"0.00008658400000","SEMIMAJOR_AXIS":"6925.323","NORAD_CAT_ID":"48554","ECCENTRICITY":"0.00004980","ARG_OF_PERICENTER":"183.2360","INCLINATION":"53.0582","MEAN_ANOMALY":"176.8626","LAUNCH_DATE":"2021-05-15","TIME_SYSTEM":"UTC","REF_FRAME":"TEME"},{"OBJECT_NAME":"STARLINK-2145","TLE_LINE1":"1 48555U 21041C   21250.90365080 -.00000069  00000-0  14235-4 0  9991","MEAN_MOTION":"15.06396322","TLE_LINE2":"2 48555  53.0564 320.8551 0000726 130.1456 229.9597 15.06396322 17302","RA_OF_ASC_NODE":"320.8551","EPHEMERIS_TYPE":"0","FILE":"3110443","ELEMENT_SET_NO":"999","PERIOD":"95.592","MEAN_MOTION_DDOT":"0.0000000000000","COUNTRY_CODE":"US","REV_AT_EPOCH":"1730","MEAN_ELEMENT_THEORY":"SGP4","RCS_SIZE":"LARGE","OBJECT_ID":"2021-041C","DECAY_DATE":null,"EPOCH":"2021-09-07T21:41:15.429120","SITE":"AFETR","OBJECT_TYPE":"PAYLOAD","PERIAPSIS":"546.722","APOAPSIS":"547.728","CENTER_NAME":"EARTH","CLASSIFICATION_TYPE":"U","MEAN_MOTION_DOT":"-0.00000069","GP_ID":"184284963","SEMIMAJOR_AXIS":"6925.360","BSTAR":"0.00001423500000","ECCENTRICITY":"0.00007260","NORAD_CAT_ID":"48555","MEAN_ANOMALY":"229.9597","INCLINATION":"53.0564","ARG_OF_PERICENTER":"130.1456","TIME_SYSTEM":"UTC","LAUNCH_DATE":"2021-05-15","REF_FRAME":"TEME"},{"RCS_SIZE":"LARGE","OBJECT_ID":"2021-041D","DECAY_DATE":null,"SITE":"AFETR","OBJECT_TYPE":"PAYLOAD","EPOCH":"2021-09-07T19:49:47.847072","MEAN_MOTION_DDOT":"0.0000000000000","PERIOD":"95.592","MEAN_ELEMENT_THEORY":"SGP4","COUNTRY_CODE":"US","REV_AT_EPOCH":"1729","ELEMENT_SET_NO":"999","EPHEMERIS_TYPE":"0","FILE":"3110443","RA_OF_ASC_NODE":"321.1952","MEAN_MOTION":"15.06396424","TLE_LINE2":"2 48556  53.0539 321.1952 0000911  91.6982 268.4111 15.06396424 17296","TLE_LINE1":"1 48556U 21041D   21250.82624823 -.00001662  00000-0 -92749-4 0  9993","OBJECT_NAME":"STARLINK-2151","REF_FRAME":"TEME","TIME_SYSTEM":"UTC","LAUNCH_DATE":"2021-05-15","MEAN_ANOMALY":"268.4111","INCLINATION":"53.0539","ARG_OF_PERICENTER":"91.6982","ECCENTRICITY":"0.00009110","NORAD_CAT_ID":"48556","SEMIMAJOR_AXIS":"6925.360","BSTAR":"-0.00009274900000","CLASSIFICATION_TYPE":"U","MEAN_MOTION_DOT":"-0.00001662","GP_ID":"184284737","PERIAPSIS":"546.594","CENTER_NAME":"EARTH","APOAPSIS":"547.855"},{"INCLINATION":"53.0572","MEAN_ANOMALY":"224.6565","ARG_OF_PERICENTER":"135.4493","TIME_SYSTEM":"UTC","LAUNCH_DATE":"2021-05-15","REF_FRAME":"TEME","PERIAPSIS":"546.639","APOAPSIS":"547.837","CENTER_NAME":"EARTH","CLASSIFICATION_TYPE":"U","MEAN_MOTION_DOT":"-0.00000767","GP_ID":"184285245","SEMIMAJOR_AXIS":"6925.373","BSTAR":"-0.00003261200000","ECCENTRICITY":"0.00008650","NORAD_CAT_ID":"48557","FILE":"3110443","EPHEMERIS_TYPE":"0","ELEMENT_SET_NO":"999","PERIOD":"95.593","MEAN_MOTION_DDOT":"0.0000000000000","COUNTRY_CODE":"US","REV_AT_EPOCH":"1739","MEAN_ELEMENT_THEORY":"SGP4","RCS_SIZE":"LARGE","SITE":"AFETR","OBJECT_TYPE":"PAYLOAD","EPOCH":"2021-09-07T13:34:16.256352","DECAY_DATE":null,"OBJECT_ID":"2021-041E","OBJECT_NAME":"STARLINK-2155","TLE_LINE1":"1 48557U 21041E   21250.56546593 -.00000767  00000-0 -32612-4 0  9990","TLE_LINE2":"2 48557  53.0572 312.3782 0000865 135.4493 224.6565 15.06391892 17391","MEAN_MOTION":"15.06391892","RA_OF_ASC_NODE":"312.3782"},{"ARG_OF_PERICENTER":"145.4981","INCLINATION":"53.0566","MEAN_ANOMALY":"214.6068","REF_FRAME":"TEME","LAUNCH_DATE":"2021-05-15","TIME_SYSTEM":"UTC","GP_ID":"184285151","MEAN_MOTION_DOT":"-0.00000308","CLASSIFICATION_TYPE":"U","CENTER_NAME":"EARTH","APOAPSIS":"547.859","PERIAPSIS":"546.586","NORAD_CAT_ID":"48558","ECCENTRICITY":"0.00009190","BSTAR":"-0.00000178260000","SEMIMAJOR_AXIS":"6925.358","ELEMENT_SET_NO":"999","FILE":"3110443","EPHEMERIS_TYPE":"0","OBJECT_TYPE":"PAYLOAD","SITE":"AFETR","EPOCH":"2021-09-07T21:26:39.314112","OBJECT_ID":"2021-041F","DECAY_DATE":null,"RCS_SIZE":"LARGE","REV_AT_EPOCH":"1658","COUNTRY_CODE":"US","MEAN_ELEMENT_THEORY":"SGP4","MEAN_MOTION_DDOT":"0.0000000000000","PERIOD":"95.592","TLE_LINE1":"1 48558U 21041F   21250.89351058 -.00000308  00000-0 -17826-5 0  9999","OBJECT_NAME":"STARLINK-2166","RA_OF_ASC_NODE":"310.9038","TLE_LINE2":"2 48558  53.0566 310.9038 0000919 145.4981 214.6068 15.06396940 16582","MEAN_MOTION":"15.06396940"},{"GP_ID":"184284643","CLASSIFICATION_TYPE":"U","MEAN_MOTION_DOT":"-0.00000785","APOAPSIS":"547.755","CENTER_NAME":"EARTH","PERIAPSIS":"546.720","NORAD_CAT_ID":"48559","ECCENTRICITY":"0.00007470","BSTAR":"-0.00003381500000","SEMIMAJOR_AXIS":"6925.373","ARG_OF_PERICENTER":"148.8575","MEAN_ANOMALY":"211.2458","INCLINATION":"53.0428","REF_FRAME":"TEME","LAUNCH_DATE":"2021-05-15","TIME_SYSTEM":"UTC","TLE_LINE1":"1 48559U 21041G   21250.86307968 -.00000785  00000-0 -33815-4 0  9992","OBJECT_NAME":"STARLINK-2167","RA_OF_ASC_NODE":"311.0825","TLE_LINE2":"2 48559  53.0428 311.0825 0000747 148.8575 211.2458 15.06392105 17431","MEAN_MOTION":"15.06392105","ELEMENT_SET_NO":"999","EPHEMERIS_TYPE":"0","FILE":"3110443","OBJECT_ID":"2021-041G","DECAY_DATE":null,"EPOCH":"2021-09-07T20:42:50.084352","SITE":"AFETR","OBJECT_TYPE":"PAYLOAD","RCS_SIZE":"LARGE","COUNTRY_CODE":"US","MEAN_ELEMENT_THEORY":"SGP4","REV_AT_EPOCH":"1743","PERIOD":"95.593","MEAN_MOTION_DDOT":"0.0000000000000"}];
